ONEWEB-0319             
1 49105U 21075AG  25092.43985934 -.00000040  00000+0 -13576-3 0  9997
2 49105  87.9002  93.6700 0001993 103.6532 256.4821 13.17646551175565
ONEWEB-0323             
1 49106U 21075AH  25092.46612445  .00000086  00000+0  20329-3 0  9997
2 49106  87.8814  78.3468 0002075 108.5607 251.5747 13.12443383176743
ONEWEB-0329             
1 49107U 21075AJ  25092.90393869 -.00000081  00000+0 -24199-3 0  9999
2 49107  87.9002  93.5818 0001845  96.0779 264.0563 13.17650053176594
ONEWEB-0330             
1 49108U 21075AK  25092.90561734 -.00000058  00000+0 -18140-3 0  9991
2 49108  87.9002  93.5837 0001687  93.0312 267.1013 13.17650540176630
ONEWEB-0292             
1 49186U 21083A   25092.40198388 -.00000588  00000+0 -16453-2 0  9994
2 49186  87.8958  47.8625 0001923  84.1427 275.9921 13.13472711173060
ONEWEB-0303             
1 49187U 21083B   25092.84187054 -.00000025  00000+0 -96763-4 0  9991
2 49187  87.9093  62.9890 0002029  89.9762 270.1602 13.18687757173221
ONEWEB-0306             
1 49188U 21083C   25092.45299226  .00000003  00000+0 -24123-4 0  9990
2 49188  87.9093  63.0513 0001821  79.9963 280.1375 13.18683618171933
ONEWEB-0307             
1 49189U 21083D   25092.39607482  .00000424  00000+0  11255-2 0  9997
2 49189  87.8956  47.8667 0001621  73.6728 286.4579 13.13470770173068
